IRIDIUM 39              
1 25042U 97069D   24175.57380559  .00000777  00000+0  20317-3 0  9991
2 25042  86.3919   4.8179 0020286  66.1789 294.1539 14.48015037397044
IRIDIUM 38              
1 25043U 97069E   24175.60558923  .00000495  00000+0  15944-3 0  9995
2 25043  86.3961  23.9664 0002332 134.1877 225.9513 14.37304892394431
IRIDIUM 42              
1 25077U 97077A   24175.59632829  .00000473  00000+0  15744-3 0  9991
2 25077  86.3965  29.6981 0001846 103.0871 257.0531 14.35601199389736
IRIDIUM 44              
1 25078U 97077B   24175.60926682  .00000545  00000+0  16881-3 0  9990
2 25078  86.3959  12.5837 0003783 105.5692 254.5925 14.39442882392101
IRIDIUM 45              
1 25104U 97082A   24175.60647945  .00009848  00000+0  54703-3 0  9998
2 25104  86.3749 219.2345 0157435 215.1636 143.9132 15.03497755397824
IRIDIUM 51              
1 25262U 98018A   24175.60127928  .00016978  00000+0  77056-3 0  9995
2 25262  86.3961 229.0388 0145398 158.4108 202.3350 15.11601688392388
